{
    "links": {
        "self": "http://www.neowsapp.com/rest/v1/neo/3710161?api_key=iIulBulltgU6a56xZRHN4H3l9WmuAYTsLGpBGhQ2"
    },
    "id": "3710161",
    "neo_reference_id": "3710161",
    "name": "(2015 CY12)",
    "designation": "2015 CY12",
    "nasa_jpl_url": "http://ssd.jpl.nasa.gov/sbdb.cgi?sstr=3710161",
    "absolute_magnitude_h": 22.2,
    "estimated_diameter": {
        "kilometers": {
            "estimated_diameter_min": 0.096506147,
            "estimated_diameter_max": 0.2157943048
        },
        "meters": {
            "estimated_diameter_min": 96.5061469579,
            "estimated_diameter_max": 215.7943048444
        },
        "miles": {
            "estimated_diameter_min": 0.059966121,
            "estimated_diameter_max": 0.134088323
        },
        "feet": {
            "estimated_diameter_min": 316.6212271853,
            "estimated_diameter_max": 707.9865871058
        }
    },
    "is_potentially_hazardous_asteroid": false,
    "close_approach_data": [
        {
            "close_approach_date": "1920-01-25",
            "close_approach_date_full": "1920-Jan-25 05:10",
            "epoch_date_close_approach": -1575831000000,
            "relative_velocity": {
                "kilometers_per_second": "15.6631215654",
                "kilometers_per_hour": "56387.2376354756",
                "miles_per_hour": "35036.8366296654"
            },
            "miss_distance": {
                "astronomical": "0.3695899871",
                "lunar": "143.7705049819",
                "kilometers": "55289874.843487477",
                "miles": "34355535.1404101026"
            },
            "orbiting_body": "Earth"
        },
        {
            "close_approach_date": "1924-07-08",
            "close_approach_date_full": "1924-Jul-08 17:49",
            "epoch_date_close_approach": -1435299060000,
            "relative_velocity": {
                "kilometers_per_second": "33.970674211",
                "kilometers_per_hour": "122294.4271595017",
                "miles_per_hour": "75989.0011425248"
            },
            "miss_distance": {
                "astronomical": "0.4774642504",
                "lunar": "185.7335934056",
                "kilometers": "71427634.860986648",
                "miles": "44383074.2321178224"
            },
            "orbiting_body": "Earth"
        },
        {
            "close_approach_date": "2010-02-02",
            "close_approach_date_full": "2010-Feb-02 19:01",
            "epoch_date_close_approach": 1265137260000,
            "relative_velocity": {
                "kilometers_per_second": "23.5385288556",
                "kilometers_per_hour": "84738.7038801269",
                "miles_per_hour": "52653.3351970711"
            },
            "miss_distance": {
                "astronomical": "0.1408331236",
                "lunar": "54.7840850804",
                "kilometers": "21068335.316006732",
                "miles": "13091256.5157356216"
            },
            "orbiting_body": "Venus"
        },
        {
            "close_approach_date": "2015-02-02",
            "close_approach_date_full": "2015-Feb-02 21:38",
            "epoch_date_close_approach": 1422913080000,
            "relative_velocity": {
                "kilometers_per_second": "20.829092279",
                "kilometers_per_hour": "74984.732204549",
                "miles_per_hour": "46592.5965189877"
            },
            "miss_distance": {
                "astronomical": "0.0651968794",
                "lunar": "25.3615860866",
                "kilometers": "9753314.288886878",
                "miles": "6060428.4733117964"
            },
            "orbiting_body": "Earth"
        }
    ],
    "orbital_data": {
        "orbit_id": "7",
        "orbit_determination_date": "2017-04-06 08:35:44",
        "first_observation_date": "2015-02-11",
        "last_observation_date": "2015-02-22",
        "data_arc_in_days": 11,
        "observations_used": 58,
        "orbit_uncertainty": "8",
        "minimum_orbit_intersection": ".0209173",
        "jupiter_tisserand_invariant": "4.578",
        "epoch_osculation": "2457066.5",
        "eccentricity": ".5489419362942793",
        "semi_major_axis": "1.357979688715047",
        "inclination": "29.09704374214556",
        "ascending_node_longitude": "317.6445851295523",
        "orbital_period": "578.0139743361157",
        "perihelion_distance": ".6125276889435063",
        "perihelion_argument": "82.81344074708547",
        "aphelion_distance": "2.103431688486587",
        "perihelion_time": "2457001.185668722160",
        "mean_anomaly": "40.67922282852884",
        "mean_motion": ".6228223122347206",
        "equinox": "J2000",
        "orbit_class": {
            "orbit_class_type": "APO",
            "orbit_class_description": "Near-Earth asteroid orbits which cross the Earth’s orbit similar to that of 1862 Apollo",
            "orbit_class_range": "a (semi-major axis) > 1.0 AU; q (perihelion) < 1.017 AU"
        }
    },
    "is_sentry_object": false
}